QIANFAN-1               
1 60379U 24140A   25272.99847163  .00000085  00000+0  11259-3 0  9994
2 60379  88.9765 306.9271 0019468  71.1452 289.1809 13.50974546 57391
QIANFAN-2               
1 60380U 24140B   25273.02716851  .00000078  00000+0  10280-3 0  9995
2 60380  88.9751 306.7736 0014149  47.6814 312.5534 13.50966686 57452
QIANFAN-3               
1 60381U 24140C   25272.96138936  .00000071  00000+0  90875-4 0  9992
2 60381  88.9744 306.9185 0015596  58.6477 301.6198 13.50966712 57353
QIANFAN-4               
1 60382U 24140D   25273.01081221  .00000082  00000+0  10861-3 0  9992
2 60382  88.9769 306.7926 0014449  49.9828 310.2588 13.50973825 57487
QIANFAN-5               
1 60383U 24140E   25272.98611022  .00000106  00000+0  14567-3 0  9990
2 60383  88.9743 306.9415 0017091  68.1766 292.1202 13.50969907 57347
QIANFAN-6               
1 60384U 24140F   25273.00673336  .00000079  00000+0  10352-3 0  9998
2 60384  88.9769 306.6660 0014728  55.1972 305.0563 13.50965663 57545
QIANFAN-7               
1 60385U 24140G   25273.00724973  .00000532  00000+0  21041-3 0  9994
2 60385  88.9772 302.3987 0012560 285.3574  74.6233 14.27562739 59875
QIANFAN-8               
1 60386U 24140H   25272.94083324  .00000082  00000+0  10738-3 0  9996
2 60386  88.9772 306.9091 0018214  56.2141 304.0741 13.50969522 57383
